STARLINK-32144          
1 60269U 24131Q   26068.39520677 -.00000660  00000+0 -10181-4 0  9993
2 60269  53.1601  53.7883 0001141  96.8101 263.3030 15.30191179 91720
TEVEL2-1                
1 63217U 25052H   26068.64782323  .00020683  00000+0  70600-3 0  9994
2 63217  97.3991 324.7682 0004767 104.8919 255.2849 15.30341923 54855
